{
  "type" : "FeatureCollection",
  "crs" : {
    "type" : "name",
    "properties" : {
      "name" : "EPSG:2264"
    }
  },
  "features" : [{"type":"Feature","id":1,"geometry":{"type":"LineString","coordinates":[[3034348.7067040056,570940.36508801579],[3034790.4726880044,570514.23635201156],[3035519.5921120048,569798.78209601343],[3035625.9207520187,569713.86596800387],[3035734.9173760116,569649.23243200779],[3035843.9404000044,569597.93564800918],[3035961.106768012,569558.51200000942],[3036059.3427520096,569535.14430400729],[3036176.5819840133,569519.05350400507],[3036274.3432960063,569513.7608320117],[3036394.8672160059,569516.75195200741],[3037042.2971200049,569542.9803520143],[3037535.6624320149,569570.26686400175],[3037691.7286720127,569577.42337600887],[3037786.7686720043,569583.5085760057],[3037840.4815840125,569589.72630400956],[3037888.9303360134,569597.21862401068],[3037965.4385920167,569614.3469440043],[3038031.6244480163,569633.51809601486],[3038096.7733120173,569656.56846401095],[3038162.2289440185,569683.96744000912],[3038218.5364480168,569711.19534401596],[3038306.9996800125,569761.75028800964],[3038339.7868960053,569784.13326400518],[3038404.3016320169,569833.14011201262],[3038458.2632320076,569878.97420801222],[3038503.2931840122,569919.7923040092],[3038558.6402560174,569984.29964800179],[3038602.0048960149,570033.60428801179],[3038651.0898880064,570104.12977601588],[3038691.7744000107,570172.49838401377],[3038719.1284960061,570224.33478401601],[3038756.1143680066,570303.47881600261],[3038784.2166400105,570383.29182401299],[3038800.064560011,570439.29731200635],[3038817.2103040069,570529.83083200455],[3038841.3219520152,570744.66452801228],[3038853.7003840059,570891.27323201299],[3038860.7845600098,571030.58656001091],[3038870.9052640051,571216.69177600741],[3038874.2665120065,571399.90566401184],[3038874.4645120054,571515.50281600654],[3038876.4429280162,571599.73254400492],[3038880.8432800174,571727.40769600868],[3038886.7542400062,571851.35622401536],[3038896.3031200171,571967.80979201198],[3038903.9501440078,572047.72417600453],[3038913.006400004,572167.42864000797],[3038927.4355840087,572328.90846401453],[3038947.0085440129,572556.57731200755],[3038961.616192013,572720.7673600018],[3038976.557536006,572922.17401601374],[3038992.752880007,573102.25422400236],[3039006.7586080134,573248.89460800588],[3039027.5259040147,573447.70878401399],[3039045.5951200128,573607.35433600843],[3039058.5527680069,573728.69876800478],[3039069.3466720134,573847.10118401051],[3039084.2558080107,573972.55398400128],[3039095.1637600064,574075.66446401179],[3039114.584656015,574258.743712008],[3039125.9456320107,574365.10720001161],[3039133.000240013,574437.94691200554],[3039149.9611840099,574592.57012800872],[3039167.1343840063,574749.4368160069],[3039209.527504012,575160.01331201196],[3039224.7999040186,575314.68668800592],[3039241.3088800162,575470.44088001549],[3039260.5618720055,575630.33142401278],[3039277.3538560122,575807.36665600538],[3039297.9569440186,575997.69428801537],[3039309.8152960092,576112.04588800669],[3039333.4374880046,576338.12862400711],[3039351.4100800157,576499.5714880079],[3039369.6482560188,576669.83142401278],[3039382.2473920137,576800.64342400432],[3039402.49936001,576990.49427200854],[3039413.0752000064,577077.72990401089],[3039435.431776017,577297.07483200729],[3039453.5231680125,577463.16409601271],[3039483.1376320124,577696.28032000363],[3039504.1087360084,577858.35995200276],[3039531.2373760045,578065.19075201452],[3039558.7968640178,578260.63417601585],[3039586.1435680091,578461.69340801239],[3039631.5420640111,578806.92779201269],[3039674.9558080137,579133.24921600521],[3039716.9069920182,579438.42793600261],[3039743.7668800056,579637.27273601294],[3039772.3290400058,579846.53972801566],[3039803.8928800076,580078.17702400684],[3039834.0987040102,580306.34272000194],[3039856.4911840111,580475.10947200656],[3039885.3733120114,580681.95347200334],[3039900.4366240054,580797.9899200052],[3039922.4584480077,580958.73582400382],[3039936.8918560147,581070.02924801409],[3039951.6652960181,581169.22144000232],[3039963.8071840107,581262.76350401342],[3039973.5281920135,581340.26598401368],[3039986.4425440133,581425.67526401579],[3039998.597104013,581504.99564801157],[3040026.9681280106,581663.44580800831],[3040066.7666560113,581829.99284800887],[3040102.6801600158,581985.68684801459],[3040127.4180160165,582134.4688000083],[3040149.0676000118,582243.564688012],[3040164.1557280123,582332.23067200184],[3040186.0825120062,582481.66787201166],[3040199.6531680077,582627.73009601235],[3040205.4807040095,582691.55632001162],[3040214.0263840109,582801.64115200937],[3040238.9970880151,583139.55956800282],[3040255.0477600098,583350.79600000381],[3040270.0746400058,583522.50952000916],[3040284.7134400159,583688.90132801235],[3040305.1259200126,583909.64651200175],[3040323.2093920112,584149.87753601372],[3040342.9349440187,584376.8499520123],[3040379.5380160064,584810.21704000235],[3040433.3676160127,585483.59022401273],[3040499.1226240098,586249.31905600429],[3040509.149872005,586389.95977601409],[3040555.2104800045,586920.49734400213],[3040575.7201120108,587168.50844800472],[3040587.8651680052,587325.30016000569],[3040613.7134080082,587624.21838401258],[3040631.200240016,587788.86990401149],[3040657.8198880106,587965.80006401241],[3040680.5793280154,588098.35182401538],[3040711.4034400135,588232.17659200728],[3040777.3342720121,588462.01129600406],[3040833.3899200112,588639.01748800278],[3040880.6110720187,588794.44432000816],[3040934.6809120178,588959.60008001328],[3040955.003632009,589033.36801600456],[3040987.6709920168,589163.86744001508],[3041030.4110080153,589363.82948800921],[3041051.7158080041,589520.04251201451],[3041064.8471680135,589653.37412801385],[3041080.9089280069,589826.62835200131],[3041094.5186560154,589987.55852800608],[3041103.238048017,590093.59993600845],[3041126.4383680075,590355.61360001564],[3041134.3974400163,590450.91496001184],[3041142.4827040136,590556.35128000379],[3041156.2202080041,590718.12467201054],[3041188.0908160061,591067.75254401565],[3041205.5707840174,591279.45361600816],[3041220.4672480077,591472.38534401357],[3041242.4964640141,591734.34040001035],[3041248.5484000146,591804.0337600112],[3041256.1621600091,591897.54995201528],[3041342.6269120127,592909.00470401347],[3041372.3137120157,593277.14108800888],[3041402.8368640095,593620.56548801064],[3041438.5935520083,593871.60203200579],[3041523.6015520096,594334.68443201482],[3041554.8153280169,594494.12987200916],[3041596.3192960173,594722.81089600921],[3041640.5757280141,594961.60312001407],[3041727.9998560101,595437.93990400434],[3041772.8999200165,595684.59985600412],[3041833.9013440162,596019.54088000953],[3041887.1137120128,596306.24910400808],[3041947.3785760105,596613.04561601579],[3042037.5477760136,597103.30153600872],[3042105.2273440063,597466.19065600634],[3042134.8011520058,597631.56606401503],[3042183.8539360166,597912.33270400763],[3042214.6838560104,598103.88740800321],[3042251.1512320042,598389.50214400887],[3042258.6979360133,598511.97332800925],[3042267.2990560085,598663.20361600816],[3042269.6644960046,598752.46201600134],[3042285.0356320143,598987.34756800532],[3042289.3309120089,599077.64137600362],[3042293.2840480059,599159.29921600223],[3042296.6093920171,599228.52212801576],[3042298.5323680043,599281.72235201299],[3042305.3219200075,599407.47400000691],[3042311.4071200043,599537.23158401251],[3042314.4336160123,599593.54753601551],[3042315.8069440126,599635.35088001192],[3042318.231520012,599689.83044800162],[3042325.7043040097,599835.6503200084],[3042336.9623200148,600085.83308801055],[3042341.4133600146,600224.67544001341],[3042350.4770080149,600369.84112000465],[3042356.2776160091,600492.11800001562],[3042360.0728800148,600582.26713600755],[3042362.9404480159,600638.28054401278],[3042367.1422720104,600699.58345600963],[3042376.1652640104,600936.68608000875],[3042385.6756000072,601131.09515200555],[3042393.7846240103,601268.24420800805],[3042395.005888015,601333.45326401293],[3042401.501872018,601483.23788800836],[3042406.9782880098,601565.85721601546],[3042408.5665120184,601615.14812800288],[3042412.6833280176,601666.84091201425],[3042420.6334240139,601747.59112000465],[3042428.2873120159,601814.86676800251],[3042436.7775520086,601876.00969600677],[3042459.8944480121,602010.05200001597],[3042467.9380000085,602051.09819200635],[3042500.762176007,602225.37515200675],[3042523.3690240085,602328.54793600738],[3042533.5372480154,602380.86112001538],[3042561.5001280159,602537.37985600531],[3042584.7500800043,602654.4400960058],[3042635.7411520183,602932.85713601112],[3042666.7368640155,603091.23073600233],[3042681.2045920044,603171.22907200456],[3042695.5260640085,603240.83689600229],[3042717.7775680125,603368.02100801468],[3042745.1374720186,603511.5113440156],[3042769.9408000112,603636.10456000268],[3042801.470848009,603801.91345600784],[3042828.612688005,603950.04280000925],[3042842.4024640173,604022.30329601467],[3042876.5767360181,604200.64744000137],[3042971.0000320077,604700.4400960058],[3042985.4561440051,604784.17139200866],[3043023.6178720146,604981.2605920136],[3043043.9025760144,605082.45232000947],[3043076.7367840111,605263.23054401577],[3043114.2823360115,605454.66380800307],[3043145.0346400142,605618.02172800899],[3043167.7111840099,605736.33227200806],[3043187.9668480158,605848.6019680053],[3043208.7684640139,605966.71873600781],[3043228.4966560155,606069.81179200113],[3043266.8468800187,606273.50363200903],[3043299.5881600082,606452.21896000206],[3043336.4890240133,606644.82280001044],[3043350.2217760086,606718.78028801084],[3043378.2501280159,606873.24985601008],[3043411.8636640161,607051.18532800674],[3043437.8439040184,607186.14318400621],[3043461.8050720096,607313.47883200645],[3043477.5558400154,607387.81648001075],[3043492.0557760149,607447.81576000154],[3043511.3050720096,607528.79300801456],[3043545.5083840042,607656.3298240155],[3043564.2465760112,607727.26451200247],[3043580.965696007,607789.29500800371],[3043612.2370240092,607902.46177600324],[3043634.5772320181,607983.15390400589],[3043654.3545280099,608062.92467200756],[3043678.026880011,608155.98678401113],[3043697.8548640162,608228.00017601252],[3043720.7774560153,608314.03513601422],[3043744.0168480128,608398.39897601306],[3043757.377888009,608447.66771200299],[3043798.9198720157,608603.87017600238],[3043868.0445760041,608860.48820801079],[3043901.0556640178,608983.69648000598],[3043949.9051680118,609159.98723201454],[3043987.1835520118,609303.22201600671],[3044006.66569601,609387.1840480119],[3044020.1735200137,609443.08868801594],[3044043.2054080069,609572.17201600969],[3044056.8922240138,609661.50961600244],[3044069.3915680051,609748.87883201241],[3044079.9014080167,609821.94558401406],[3044089.9138720185,609905.15099200606],[3044100.1744960099,609983.83672000468],[3044122.4017120153,610153.10612800717],[3044136.029392004,610252.50371201336],[3044151.5145760179,610346.86206400394],[3044161.6896640062,610425.13225600123],[3044171.5748800039,610489.58468800783],[3044185.3440640122,610592.20729601383],[3044201.422720015,610705.16444800794],[3044210.643712014,610781.96574400365],[3044220.1001920104,610850.49486400187],[3044232.705136016,610927.52953600883],[3044244.4330720156,611017.47803200781],[3044272.6657600105,611219.36305600405],[3044286.0996640176,611323.59976001084],[3044322.9292480052,611579.14806400239],[3044347.0129120052,611745.85614401102],[3044363.1538720131,611865.3937600106],[3044376.7282240093,611974.23092800379],[3044393.3961280137,612101.75718401372],[3044411.4848800153,612229.1646400094],[3044440.0549600124,612441.17036801577],[3044452.0754080117,612520.23361600935],[3044459.7556960136,612581.6933440119],[3044477.5049440116,612703.4174080044],[3044491.4525920153,612789.66673600674],[3044507.9731840044,612895.71078400314],[3044562.705136016,613188.92185601592],[3044914.9846240133,615056.91140800714],[3045072.3687520176,615899.54872000217],[3045167.6495200098,616404.79086400568],[3045251.5782880187,616850.81569601595],[3045304.6850560158,617130.99256001413],[3045334.7145280093,617293.40377600491],[3045378.1858240068,617523.06952001154],[3045563.2329280078,618500.69795200229],[3045680.5856800079,619110.7079680115],[3045743.4240160137,619443.42505601048],[3045782.9992000163,619669.16564801335],[3045976.8485920131,620699.12785600126],[3046001.3963680118,620839.9982560128],[3046027.4616160095,621011.6072320044],[3046059.983776018,621310.86337600648],[3046068.6244960129,621412.05827200413],[3046074.154768005,621529.44428801537],[3046093.5270880163,622042.59059201181],[3046129.3450240046,622958.53014400601],[3046161.8930560052,623805.23780800402],[3046174.6263040155,624126.42337600887],[3046193.5857280046,624588.49254401028],[3046220.2439200133,625275.61273600161],[3046236.4519360065,625694.99099200964],[3046250.1017920077,626037.39582401514],[3046281.9924640059,626915.46721601486],[3046289.2387360185,627226.84201601148],[3046303.4282080084,627684.31230400503],[3046315.3816000074,628087.81518401206],[3046320.0728800148,628323.02756801248],[3046333.9128160179,628885.70027200878],[3046363.9956160188,629968.78086401522],[3046398.93918401,631211.18968001008],[3046417.8442240059,631958.15286400914],[3046430.6413600147,632466.56617601216],[3046448.0933440179,633152.70798401535],[3046479.6503200084,634322.55692800879],[3046524.5926240087,636117.67350400984],[3046533.0728320181,636454.40022401512],[3046537.8433120102,636653.49899201095],[3046554.4710880071,637308.68627201021],[3046557.7837600112,637428.8907520026],[3046564.6514560133,637741.06283201277],[3046566.6230080128,637803.52576000988],[3046590.4231360108,638717.15742400289],[3046606.5989440084,639372.83996801078],[3046633.3822720051,640448.25347201526],[3046648.750240013,640821.88000001013],[3046669.7672800124,641994.91014400125],[3046690.8967840075,642691.10348801315],[3046696.4946400076,642807.7001440078],[3046712.9392000139,643074.19600000978],[3046762.0131040066,643826.59177601337],[3046791.6492160112,644238.22163200378],[3046809.6482080072,644507.08398400247],[3046934.2894720137,646343.5392640084],[3046978.3648000062,646975.89054401219],[3047009.9133280069,647445.02963200212],[3047069.4727840126,648302.91400000453],[3047085.2737120092,648537.74200001359],[3047124.2818240076,649101.17766401172],[3047155.2865120173,649555.86116801202],[3047165.5001440048,649691.62000000477],[3047178.1536640078,649907.0783200115],[3047219.361424014,650515.7641120106],[3047238.898480013,650793.89128001034],[3047343.6880000085,652330.8892480135],[3047373.7528480142,652763.63012801111],[3047424.4086400121,653527.65827201307],[3047445.554512009,653846.1462880075],[3047491.7497600168,654487.88012801111],[3047539.2502240092,655188.81016001105],[3047560.9188160151,655518.82864001393],[3047568.6872800142,655630.41827200353],[3047583.2500480115,655823.80988800526],[3047610.4969600141,656216.47979201376],[3047622.8120320141,656343.79220801592],[3047630.9960320145,656413.90216000378],[3047740.9705120176,657254.357776016],[3047819.7528640181,657862.48072001338],[3047915.9961760044,658597.36432000995],[3047986.249744013,659125.7497600019],[3048058.7837440073,659686.27931201458],[3048099.4999360144,660023.5599040091],[3048135.8749120086,660303.3428800106],[3048154.5460480154,660445.21595200896],[3048168.5100640059,660551.68979200721],[3048204.5001280159,660845.13001601398],[3048224.0176480114,660983.89105600119],[3048281.950864017,661435.24288000166],[3048294.4935040176,661528.50404800475],[3048310.7342560142,661656.32598400116],[3048323.8503040075,661750.80841600895],[3048367.1536960155,662090.89480000734],[3048383.2503040135,662217.31014400721],[3048459.948112011,662805.69222401083],[3048673.1978080124,664439.32211200893],[3048710.8552960157,664732.20899200439],[3048763.1130400151,665135.50964801013],[3048824.9999200106,665610.80996800959],[3048840.1519360095,665732.16232000291],[3048851.9743840098,665816.77432000637],[3048994.2476800084,666910.71481600404],[3049012.0000960082,667067.12003201246],[3049027.5000640154,667179.05972801149],[3049041.4999840111,667270.93964800239],[3049046.3982400149,667315.91838401556],[3049052.0747680068,667362.11152000725],[3049079.5001440048,667717.12024000287],[3049076.7497920096,667906.68016001582],[3049070.3763040155,668003.9826400131],[3049064.7905920148,668066.23700800538],[3049050.778000012,668182.56332801282],[3049033.0799680054,668303.24564801157],[3049014.1221280098,668408.27910400927],[3048975.718576014,668593.66729600728],[3048928.626256004,668834.37352000177],[3048902.8778080046,668972.40116800368],[3048885.4643680155,669062.1442720145],[3048872.1856960058,669151.24216000736],[3048864.5798560083,669223.93244801462],[3048860.4968320131,669302.58016000688],[3048858.3753280044,669389.49688000977],[3048859.0041760057,669477.8481760025],[3048867.5625280142,669590.9536960125],[3048873.5965120047,669636.98368000984],[3048895.0338400155,669760.9939840138],[3048904.9132480174,669808.08736000955],[3048920.4998080134,669876.05996800959],[3048957.5147200078,670023.65867200494],[3048976.5871360153,670104.32334400713],[3048997.8528640121,670187.73731200397],[3049016.4601120055,670266.21078400314],[3049039.4418400079,670360.05644801259],[3049056.7396480143,670429.10353600979],[3049070.6059840173,670489.83673600852],[3049186.8351520151,670975.93360000849],[3049208.2576960176,671065.27225600183],[3049247.4331840128,671212.54043200612],[3049288.320976004,671345.05153600872],[3049300.9591840059,671381.81036800146],[3049319.9999200106,671437.19017601013],[3049417.7475040108,671693.96713601053],[3049489.5982720107,671885.62849600613],[3049505.8712320179,671929.93667200208],[3049529.577376008,671994.13936001062],[3049545.497104004,672033.95320001245],[3049572.9647200108,672105.10753600299],[3049619.9234560132,672229.3617760092],[3049631.3557120115,672259.46094401181],[3049649.5183840096,672306.49940800667],[3049659.9057280123,672339.27342401445],[3049706.2213600129,672460.70603200793],[3049746.7400800139,672566.94016000628],[3049830.6181600094,672784.87849600613],[3049896.5056960136,672956.71081601083],[3049950.0940000117,673098.23435200751],[3049989.3766720146,673204.59361600876],[3050016.0385600179,673276.71155200899],[3050055.1744480133,673400.85280001163],[3050071.6459360123,673459.02995200455],[3050086.0635040104,673531.98107200861],[3050107.8809920102,673654.5261760056],[3050114.8136320114,673709.89384001493],[3050124.9401440173,673861.74083201587],[3050124.7880800068,673953.28388801217],[3050117.1083200127,674123.24761600792],[3050109.8124160171,674227.36921600997],[3050104.763680011,674324.20494401455],[3050079.714304015,674767.78144000471],[3050072.2499680072,674924.25001600385],[3050021.2720960081,675860.63953600824],[3049988.2499200106,676430.62028801441],[3049978.9998880178,676652.31006400287],[3049973.0847040117,676741.71472001076],[3049967.6067040116,676859.07644800842],[3049959.8049760163,677005.73531201482],[3049955.8819360137,677060.29619200528],[3049945.2353440076,677257.21168000996],[3049937.6126080155,677411.95105600357],[3049934.8601440042,677461.12000000477],[3049928.5505440086,677563.01238401234],[3049925.6639680117,677612.74892801046],[3049920.8237920105,677691.50699201226],[3049917.1409920156,677779.23577600718],[3049902.7720000148,678058.76953600347],[3049899.7307200134,678123.10211201012],[3049891.5124000162,678263.28241601586],[3049883.8880800158,678412.78720000386],[3049881.4798720181,678463.68798400462],[3049878.7342720181,678527.74652801454],[3049866.4999840111,678769.6898560077],[3049865.297728017,678816.8809120059],[3049865.3188480139,678870.96606400609],[3049865.521600008,678890.14988800883],[3049865.6272000074,678930.99755200744],[3049866.3373600096,678960.99006401002],[3049869.7704160064,679041.75664000213],[3049871.0824960172,679089.60611200333],[3049875.2500000149,679151.25011201203],[3049897.2190240175,679365.10964800417],[3049913.1202720106,679470.17478400469],[3049935.7202560157,679600.54115201533],[3049942.9860640168,679636.62942400575],[3049961.9998720139,679727.74004800618],[3049984.7313280106,679839.61955200136],[3049992.1555360109,679869.49273601174],[3050005.727248013,679938.9675040096],[3050024.9100160152,680031.11459201574],[3050070.1369120181,680240.38211201131],[3050076.6128320098,680269.48283201456],[3050103.2916160077,680395.00691200793],[3050129.7824320048,680518.96705600619],[3050146.5855040103,680599.80068801343],[3050158.1851360053,680652.18092800677],[3050176.1059840173,680736.93918401003],[3050200.9996000081,680865.27222400904],[3050217.0893440098,680994.69980800152],[3050227.1778400093,681111.72520001233],[3050233.7514400184,681211.20304000378],[3050260.2084640115,681607.6946080029],[3050289.251632005,682040.06905600429],[3050293.4840800166,682123.57912001014],[3050304.9020800143,682289.13827200234],[3050306.9908480048,682421.22116801143],[3050302.2499360144,682691.05979201198],[3050285.7499360144,683317.43992000818],[3050280.9678400159,683424.21260800958],[3050273.641312018,683646.33217601478],[3050259.2607040107,684051.85096000135],[3050255.5995520055,684163.97440001369],[3050238.3651040047,684674.2182880044],[3050235.9848800153,684712.93652801216],[3050232.8321920186,684851.41772800684],[3050218.7499040067,685246.36964800954],[3050213.4878560156,685476.61460800469],[3050212.2502240092,685531.94003200531],[3050207.0003200173,685625.00003200769],[3050191.9998400062,686017.37003201246],[3050186.7499360144,686266.99998401105],[3050181.0000160187,686412.17992000282],[3050170.0989280045,686538.41944000125],[3050153.7499360144,686642.80979201198],[3050148.6763840169,686682.24452801049],[3050127.9814240187,686786.11427201331],[3050067.3115840107,687029.77254401147],[3049994.0336320102,687256.79670400918],[3049937.1675040126,687424.7809600085],[3049917.9731200039,687488.56441600621],[3049876.0451680124,687611.29854400456],[3049854.6205120087,687683.45238400996],[3049839.1749280095,687742.90888001025],[3049822.611040011,687815.74964800477],[3049795.9998400062,687958.94008000195],[3049784.2497280091,688065.690064013],[3049783.7692480087,688157.86883200705],[3049784.2391680181,688232.58505600691],[3049787.7498400062,688347.30995200574],[3049787.9214400053,688352.04400001466],[3049796.6371360123,688637.26907201111],[3049798.4191360176,688689.41329601407],[3049802.4842080176,688816.99499200284],[3049805.1199840158,688908.46307200193],[3049811.245840013,689103.47248001397],[3049813.2501280159,689192.13001601398],[3049821.9763840139,689414.25380800664],[3049825.7500000149,689510.31020800769],[3049830.8019040078,689616.76768000424],[3049848.9999520183,690000.24985601008],[3049856.4120160043,690111.07072000206],[3049871.785792008,690215.98326401412],[3049887.9151360095,690287.73952001333],[3049916.1726400107,690401.66766400635],[3049949.929264009,690510.4821280092],[3050051.227120012,690813.35665601492],[3050318.4547840059,691619.04347200692],[3050339.7970720083,691692.4803520143],[3050361.2222560048,691779.23867200315],[3050379.6700480133,691866.9526720047],[3050396.5787200183,691970.73265600204],[3050424.1318720132,692179.89088000357],[3050431.8808000088,692324.42560000718],[3050434.0878400058,692405.49524800479],[3050431.7609440088,692540.25457601249],[3050413.254016012,693027.08747200668],[3050400.3708160073,693333.50065600872],[3050390.2844320089,693616.24888001382],[3050378.195344016,693944.08513601124],[3050365.4214400053,694251.10657601058],[3050353.2885280102,694594.80342401564],[3050338.4116000086,694881.00054401159],[3050302.0841440111,695128.05121600628],[3050252.7636640072,695337.70206400752],[3050195.1087040156,695541.39390401542],[3050116.7160160094,695767.8119200021],[3050041.8076000065,695968.5010240078],[3049976.8884160072,696153.50113600492],[3049913.8689760119,696319.95313601196],[3049870.2208000124,696437.6702080071],[3049834.4973760098,696539.36195200682],[3049799.3874880075,696634.41568000615],[3049719.3490240127,696851.64702400565],[3049627.2346720099,697120.80452801287],[3049592.0989120156,697228.31430400908],[3049548.750112012,697391.27833600342],[3049515.0088000149,697544.71144001186],[3049489.7440000176,697707.97273601592],[3049458.7894720137,698045.91860800982],[3049427.126368016,698481.9975040108],[3049391.5043200105,698931.91105601192],[3049372.606144011,699177.85609601438],[3049350.0283360183,699391.69979201257],[3049337.1081760079,699496.76704001427],[3049323.5544160157,699592.8033760041],[3049308.3559360057,699681.46724800766],[3049295.9210080057,699758.76856000721],[3049274.4894880056,699876.37897600234],[3049257.423472017,699945.43240000308],[3049239.903376013,700018.01128001511],[3049224.0908320099,700087.69672000408],[3049209.1331200153,700152.72572800517],[3049188.191584006,700228.92299200594],[3049164.8450080156,700313.16803200543],[3049130.9025280178,700427.53547200561],[3049077.0523360074,700587.39592000842],[3049036.341952011,700700.40640000999],[3048974.2079680115,700862.36036801338],[3048822.4602400064,701249.06228800118],[3048757.4465440065,701413.19531200826],[3048652.5741280168,701682.82854400575],[3048526.7438080162,702025.75081600249],[3048465.0459520072,702224.32686400414],[3048425.0473120064,702364.82344001532],[3048393.6682720184,702491.75939200819],[3048336.5956960171,702758.11110401154],[3048249.0131680071,703270.14860801399],[3048176.5182400048,703679.35864001513],[3048129.8340640068,703955.27665600181],[3048090.8180320114,704181.68358400464],[3048053.2613920122,704403.33851200342],[3048019.0374880135,704600.82846400142],[3047984.7438880056,704800.82483200729],[3047951.8843360096,704996.10932800174],[3047912.0002720058,705197.56878401339],[3047889.4942720085,705329.83542400599],[3047866.3388320059,705461.98960000277],[3047842.5350080132,705594.02920000255],[3047820.2692480087,705725.49539200962],[3047797.3556320071,705856.38342401385],[3047771.7212320119,705985.74923200905],[3047740.8437920064,706120.96897600591],[3047729.7288640141,706171.62476800382],[3047717.8874080181,706222.11635200679],[3047705.3215360045,706272.43211200833],[3047692.0338880122,706322.56201601028],[3047678.027632013,706372.49603201449],[3047663.3054080158,706422.2230720073],[3047647.8698560148,706471.73416000605],[3047621.8220320046,706561.25392000377],[3047594.1870400161,706649.53182400763],[3047564.138560012,706738.31713600457],[3047534.8218880147,706826.72598400712],[3047472.3019360155,707018.93699200451],[3047395.3945120126,707251.92227201164],[3047328.5539360046,707454.49844801426],[3047254.7537920177,707677.79440000653],[3047192.0627680123,707868.51592001319],[3047128.3210240155,708058.70996801555],[3047065.9394080043,708248.69440001249],[3047003.0878720134,708438.52360001206],[3046920.5799520165,708690.10768000782],[3046852.4827360064,708905.80676801503],[3046788.594208017,709142.54929600656],[3046659.4042240083,709700.05868801475],[3046587.1310560107,710010.41128000617],[3046534.9789120108,710238.34940801561],[3046464.7792000175,710545.45110401511],[3046173.4837120175,711802.37675200403],[3046132.1064640135,711978.7308640033],[3046078.4405440092,712213.74366401136],[3046020.9344800115,712458.59680001438],[3045967.3224160075,712691.75262400508],[3045883.3778080046,713056.19036801159],[3045866.3403040171,713126.86369600892],[3045852.1645600051,713198.21920001507],[3045838.5321280062,713268.87088000774],[3045825.6520960182,713340.08857600391],[3045813.1200160086,713411.42507201433],[3045800.4802240133,713483.69876800478],[3045792.9308800101,713551.87096001208],[3045785.1286240071,713610.1674400121],[3045779.0138560086,713656.79142400622],[3045775.0126720071,713697.35185600817],[3045745.8116320074,714012.23099200428],[3045720.8578240126,714326.96809600294],[3045692.5770880133,714636.71718400717],[3045673.3309600055,714866.26043200493],[3045652.8588160127,715098.64168000221],[3045632.7736960053,715332.0710080117],[3045613.1954560131,715562.23201601207],[3045593.2307200134,715800.89646400511],[3045572.8868800104,716037.5740480125],[3045553.5557440072,716272.97123201191],[3045533.7546880096,716489.96339200437],[3045526.901248008,716573.21368001401],[3045497.2588000149,716876.10035200417],[3045470.4089440107,717070.10550400615],[3045430.4694400132,717285.7840000093],[3045367.9120000154,717590.07515200973],[3045108.0098080188,718781.94486400485],[3045066.7043680102,718971.39812800288],[3044983.5100480169,719368.40132801235],[3044940.7013920099,719564.87276801467],[3044917.6003360152,719671.25896000862],[3044894.4887200147,719787.05358400941],[3044818.9926400185,720126.45832000673],[3044798.8024480045,720227.0956480056],[3044768.8965280056,720337.38059200346],[3044734.8817120045,720453.24544000626],[3044677.8682720065,720603.16153600812],[3044585.2232800126,720817.86798401177],[3044471.3606080115,721025.75425601006],[3044391.2645920068,721166.74715201557],[3044311.397728011,721306.45278400183],[3044210.0982880145,721495.72705601156],[3044136.9211840183,721653.60328000784],[3044067.861424014,721829.26782400906],[3044023.4318080097,721953.97139200568],[3043988.3409280181,722071.22540800273],[3043957.3156480044,722198.57108801603],[3043920.5335840136,722372.59988801181],[3043887.2716960162,722608.72465601563],[3043878.2867200077,722720.74302400649],[3043870.6043200046,723055.82132801414],[3043870.6792960167,723175.43180800974],[3043870.7838400155,723346.72398400307],[3043869.6417760104,723441.67158401012],[3043860.9482560158,723578.07563200593],[3043852.0139680058,723659.65744000673],[3043825.8024640083,723835.13824000955],[3043808.7792160064,723921.39812800288],[3043773.79974401,724069.47731201351],[3043746.1240960062,724178.37361600995],[3043683.2693920135,724413.20320001245],[3043489.991824016,725134.29174400866],[3043333.8954880089,725743.78484800458],[3043218.3268480152,726260.23220801353],[3043113.3324640095,726666.64912000299],[3043055.9446720183,726865.20193600655],[3042974.3010880053,727132.32136000693],[3042897.3382240087,727358.01918400824],[3042828.6316960156,727552.12888000906],[3042759.9779680073,727741.81552000344],[3042674.9668000042,727973.39632001519],[3042358.1050240099,728854.48628801107],[3042251.8661440164,729148.561168015],[3042057.289696008,729688.33240000904],[3041907.8255680054,730096.13900801539],[3041786.2071040124,730433.73851200938],[3041676.5293600112,730739.5349920094],[3041524.0239520073,731158.16137601435],[3041261.8793440163,731880.54932801425],[3041211.3608320057,732026.26148800552],[3041177.5429600179,732144.72040000558],[3041125.0919680148,732342.78323200345],[3041095.7673760056,732478.81556801498],[3041072.2222720087,732621.01494400203],[3041058.2186560184,732708.95915201306],[3041041.8738880157,732861.51155200601],[3041026.9547200054,733038.26430401206],[3041004.9719680101,733217.30118401349],[3040971.7417600155,733392.53118400276],[3040940.3394880146,733519.36470401287],[3040905.9571840167,733638.08022400737],[3040817.0134720057,733901.19212800264],[3040585.8466240168,734335.99168001115],[3040444.3362880051,734607.1180960089],[3040384.6854880154,734728.91660800576],[3040354.7547520101,734790.03102400899],[3040268.8306720108,734983.01027201116],[3040154.4975520074,735265.66345600784],[3039956.5001920164,735754.88872000575],[3039847.7696800083,736029.02579200268],[3039674.5914880186,736461.86435200274],[3039446.8624480069,737025.38660800457],[3039255.5500960052,737510.58428801596],[3038986.056784004,738230.69444800913],[3038739.4227040112,738889.57244801521],[3038367.6220000088,739881.5946880132],[3038136.9979360104,740498.52678400278],[3037954.8125920147,740982.83636800945],[3037743.1944160163,741563.45579200983],[3037675.6642720103,741743.95523200929],[3037642.9404160082,741837.60342401266],[3037604.8082560152,741946.71937601268],[3037580.6865760088,742018.00888000429],[3037481.3328160048,742314.47612801194],[3037455.2797120064,742395.62022401392],[3037388.6054560095,742597.250752002],[3037321.6682560146,742774.43963201344],[3037236.6771520078,742970.78012800217],[3037126.9819840044,743200.185040012],[3036875.1043360084,743739.69438400865],[3036693.6603040099,744118.91084800661],[3036625.7579200119,744262.54638400674],[3036404.8099840134,744728.74187201262],[3036097.7067040056,745377.47857600451],[3035975.7334240079,745637.36545601487],[3035873.053264007,745851.01590400934],[3035750.4448000044,746109.00092801452],[3035614.9409920126,746394.49633601308],[3035545.6446880102,746550.84716801345],[3035512.6209280044,746620.31612801552],[3035379.7275520116,746901.54899200797],[3035259.1825120151,747158.39089600742],[3035175.8044480085,747339.06035201252],[3035097.3468160182,747497.01102401316],[3035007.9184000045,747666.55657601357],[3034935.8284480125,747799.56347200274],[3034867.047472015,747913.25824001431],[3034813.4179840088,748002.25369600952],[3034748.4190720171,748101.59003201127],[3034653.7375840098,748242.15208001435],[3034578.7774240077,748346.90358400345],[3034526.026000008,748415.48497600853],[3034458.7128640115,748502.71268801391],[3034364.2309600115,748626.73619200289],[3034235.2389760166,748791.33174401522],[3034161.5465440154,748885.94248001277],[3034069.0625920147,749006.2678720057],[3033945.1441600174,749164.25180800259],[3033823.3995040059,749321.16020800173],[3033742.9191040099,749424.13182400167],[3033702.5566720068,749476.61185601354],[3033644.1007360071,749550.14272001386],[3033542.2970560044,749681.69022400677],[3033466.68428801,749778.62416000664],[3033350.4007360041,749927.4921760112],[3033254.2603840083,750050.94280001521],[3032941.3770880103,750451.78614400327],[3032807.0195680112,750625.33604800701],[3032675.5375360101,750792.31446400285],[3032628.8765920103,750854.56038400531],[3032581.649104014,750915.27299201488],[3032532.930016011,750975.88158400357],[3032498.0994400084,751019.25308801234],[3032472.6466720104,751047.23550400138],[3032449.1501440108,751071.98286400735],[3032422.3372480124,751100.36022400856],[3032395.9214080125,751128.31782400608],[3032366.4357760102,751157.10596801341],[3032335.8228640109,751185.26632000506],[3032304.1814080179,751214.95681600273],[3032269.7695360184,751244.35955201089],[3032239.3430080116,751271.41585600376],[3032110.16569601,751374.41915200651],[3032060.1714880168,751408.72120000422],[3032025.1302400082,751431.63534401357],[3031990.2605920136,751453.63868801296],[3031955.9416480064,751475.25712001324],[3031920.4695520103,751495.93624000251],[3031886.1088960171,751514.77105601132],[3031850.3564320058,751535.01880000532],[3031812.767584011,751553.47715200484],[3031776.0472960174,751571.63454401493],[3031738.2863200158,751589.40808001161],[3031703.680144012,751606.65520000458],[3031666.9577440172,751621.9962400049],[3031625.7689920068,751640.07443201542],[3031588.2118240148,751655.30723200738],[3031550.7586720139,751669.50409600139],[3031511.5245760083,751684.76065601408],[3031472.1452800184,751696.78480000794],[3031431.7480000108,751709.52702401578],[3031395.8630080074,751721.03003200889],[3031350.2395840138,751734.33880001307],[3031312.182400018,751743.25936001539],[3031271.983648017,751755.01052801311],[3031232.0119360089,751763.20614400506],[3031189.9699360132,751773.61830401421],[3031146.2879680097,751784.81348800659],[3031106.1879520118,751793.37289601564],[3031063.0023040175,751803.01470400393],[3031018.9111360162,751813.82392001152],[3030975.4308640063,751824.41032001376],[3030637.3904800117,751898.57003201544],[3030099.8658880144,752019.72068801522]]},"properties":{"OBJECTID":1,"BeginMP":0,"EndMP":84.222143000006326,"Shape_Length":193136.51838010081,"year":null,"route_name":null,"domain_id":null,"avg_elev_m":null,"source_image":null,"editor":null,"edit_date":null,"notes":null}}]
}