{
"type": "FeatureCollection",
"name": "transects",
"crs": { "type": "name", "properties": { "name": "urn:ogc:def:crs:OGC:1.3:CRS84" } },
"xy_coordinate_resolution": 1e-07,
"features": [
{ "type": "Feature", "properties": { "id": "usa_NC_0036_0033" }, "geometry": { "type": "LineString", "coordinates": [ [ -75.464508, 35.6024954 ], [ -75.4598535, 35.602487 ] ] } },
{ "type": "Feature", "properties": { "id": "usa_NC_0036_0034" }, "geometry": { "type": "LineString", "coordinates": [ [ -75.4645889, 35.6029563 ], [ -75.4598566, 35.6029401 ] ] } },
{ "type": "Feature", "properties": { "id": "usa_NC_0036_0035" }, "geometry": { "type": "LineString", "coordinates": [ [ -75.4649083, 35.6034187 ], [ -75.4599699, 35.6033939 ] ] } },
{ "type": "Feature", "properties": { "id": "usa_NC_0036_0036" }, "geometry": { "type": "LineString", "coordinates": [ [ -75.4648056, 35.6038793 ], [ -75.4599968, 35.6038474 ] ] } },
{ "type": "Feature", "properties": { "id": "usa_NC_0036_0037" }, "geometry": { "type": "LineString", "coordinates": [ [ -75.4648566, 35.6043408 ], [ -75.460205, 35.6043024 ] ] } },
{ "type": "Feature", "properties": { "id": "usa_NC_0036_0038" }, "geometry": { "type": "LineString", "coordinates": [ [ -75.4648192, 35.6048016 ], [ -75.4602399, 35.6047565 ] ] } },
{ "type": "Feature", "properties": { "id": "usa_NC_0036_0039" }, "geometry": { "type": "LineString", "coordinates": [ [ -75.4653056, 35.6052673 ], [ -75.4602076, 35.6052096 ] ] } },
{ "type": "Feature", "properties": { "id": "usa_NC_0036_0040" }, "geometry": { "type": "LineString", "coordinates": [ [ -75.4654901, 35.6057078 ], [ -75.4602277, 35.6056559 ] ] } },
{ "type": "Feature", "properties": { "id": "usa_NC_0036_0041" }, "geometry": { "type": "LineString", "coordinates": [ [ -75.465119, 35.6061428 ], [ -75.4602527, 35.606102 ] ] } },
{ "type": "Feature", "properties": { "id": "usa_NC_0036_0042" }, "geometry": { "type": "LineString", "coordinates": [ [ -75.4655307, 35.6065844 ], [ -75.4602639, 35.606548 ] ] } },
{ "type": "Feature", "properties": { "id": "usa_NC_0036_0043" }, "geometry": { "type": "LineString", "coordinates": [ [ -75.4655514, 35.6070228 ], [ -75.4602862, 35.6069942 ] ] } },
{ "type": "Feature", "properties": { "id": "usa_NC_0036_0044" }, "geometry": { "type": "LineString", "coordinates": [ [ -75.4655772, 35.6074613 ], [ -75.4603387, 35.6074406 ] ] } },
{ "type": "Feature", "properties": { "id": "usa_NC_0036_0045" }, "geometry": { "type": "LineString", "coordinates": [ [ -75.4656146, 35.6079 ], [ -75.4604277, 35.607887 ] ] } },
{ "type": "Feature", "properties": { "id": "usa_NC_0036_0046" }, "geometry": { "type": "LineString", "coordinates": [ [ -75.4656755, 35.6083384 ], [ -75.4605415, 35.6083331 ] ] } },
{ "type": "Feature", "properties": { "id": "usa_NC_0036_0047" }, "geometry": { "type": "LineString", "coordinates": [ [ -75.4657414, 35.608747 ], [ -75.4606472, 35.6087702 ] ] } },
{ "type": "Feature", "properties": { "id": "usa_NC_0036_0048" }, "geometry": { "type": "LineString", "coordinates": [ [ -75.4658361, 35.6091534 ], [ -75.4607434, 35.6092054 ] ] } },
{ "type": "Feature", "properties": { "id": "usa_NC_0036_0049" }, "geometry": { "type": "LineString", "coordinates": [ [ -75.4659611, 35.6095575 ], [ -75.4608489, 35.6096387 ] ] } },
{ "type": "Feature", "properties": { "id": "usa_NC_0036_0050" }, "geometry": { "type": "LineString", "coordinates": [ [ -75.4660762, 35.6099597 ], [ -75.4607394, 35.6100748 ] ] } },
{ "type": "Feature", "properties": { "id": "usa_NC_0036_0051" }, "geometry": { "type": "LineString", "coordinates": [ [ -75.466249, 35.6103583 ], [ -75.4606233, 35.6105116 ] ] } },
{ "type": "Feature", "properties": { "id": "usa_NC_0036_0052" }, "geometry": { "type": "LineString", "coordinates": [ [ -75.4664053, 35.6107546 ], [ -75.4605444, 35.6109479 ] ] } },
{ "type": "Feature", "properties": { "id": "usa_NC_0036_0053" }, "geometry": { "type": "LineString", "coordinates": [ [ -75.4664816, 35.6111515 ], [ -75.4605105, 35.6113826 ] ] } },
{ "type": "Feature", "properties": { "id": "usa_NC_0036_0054" }, "geometry": { "type": "LineString", "coordinates": [ [ -75.466452, 35.6115494 ], [ -75.4604217, 35.6118189 ] ] } },
{ "type": "Feature", "properties": { "id": "usa_NC_0036_0055" }, "geometry": { "type": "LineString", "coordinates": [ [ -75.4665332, 35.6119396 ], [ -75.4603989, 35.6122518 ] ] } },
{ "type": "Feature", "properties": { "id": "usa_NC_0036_0056" }, "geometry": { "type": "LineString", "coordinates": [ [ -75.466598, 35.6123289 ], [ -75.460338, 35.6126864 ] ] } },
{ "type": "Feature", "properties": { "id": "usa_NC_0036_0057" }, "geometry": { "type": "LineString", "coordinates": [ [ -75.4666536, 35.6127169 ], [ -75.4602692, 35.6131215 ] ] } },
{ "type": "Feature", "properties": { "id": "usa_NC_0036_0058" }, "geometry": { "type": "LineString", "coordinates": [ [ -75.4667034, 35.6131057 ], [ -75.4601907, 35.6135596 ] ] } },
{ "type": "Feature", "properties": { "id": "usa_NC_0036_0059" }, "geometry": { "type": "LineString", "coordinates": [ [ -75.4667405, 35.6134946 ], [ -75.4600681, 35.6140019 ] ] } },
{ "type": "Feature", "properties": { "id": "usa_NC_0036_0060" }, "geometry": { "type": "LineString", "coordinates": [ [ -75.4667844, 35.6138819 ], [ -75.4599112, 35.614448 ] ] } },
{ "type": "Feature", "properties": { "id": "usa_NC_0036_0061" }, "geometry": { "type": "LineString", "coordinates": [ [ -75.4668533, 35.6142657 ], [ -75.459843, 35.6148877 ] ] } },
{ "type": "Feature", "properties": { "id": "usa_NC_0036_0062" }, "geometry": { "type": "LineString", "coordinates": [ [ -75.4669327, 35.614647 ], [ -75.4597546, 35.6153297 ] ] } },
{ "type": "Feature", "properties": { "id": "usa_NC_0036_0063" }, "geometry": { "type": "LineString", "coordinates": [ [ -75.4669814, 35.6150297 ], [ -75.4596003, 35.615779 ] ] } },
{ "type": "Feature", "properties": { "id": "usa_NC_0036_0064" }, "geometry": { "type": "LineString", "coordinates": [ [ -75.4669927, 35.6154156 ], [ -75.4595363, 35.6162205 ] ] } },
{ "type": "Feature", "properties": { "id": "usa_NC_0036_0065" }, "geometry": { "type": "LineString", "coordinates": [ [ -75.4671009, 35.61581 ], [ -75.4594874, 35.6166717 ] ] } },
{ "type": "Feature", "properties": { "id": "usa_NC_0036_0066" }, "geometry": { "type": "LineString", "coordinates": [ [ -75.4672105, 35.6162065 ], [ -75.4594551, 35.6171227 ] ] } },
{ "type": "Feature", "properties": { "id": "usa_NC_0036_0067" }, "geometry": { "type": "LineString", "coordinates": [ [ -75.4672883, 35.6166062 ], [ -75.4594515, 35.617571 ] ] } }
]
}
