{
  "type" : "FeatureCollection",
  "crs" : {
    "type" : "name",
    "properties" : {
      "name" : "EPSG:3725"
    }
  },
  "features" : [{"type":"Feature","id":2,"geometry":{"type":"Polygon","coordinates":[[[450286.41469999962,3960038.6097999997],[450286.41610000003,3895365.7529000007],[459979.77170000039,3895365.7531000003],[459979.77029999997,3960038.6099999994],[450286.41469999962,3960038.6097999997]]]},"properties":{"OBJECTID":2,"Shape_Length":148732.42499999891,"Shape_Area":626896999.59962821}}]
}