{
  "type" : "FeatureCollection",
  "crs" : {
    "type" : "name",
    "properties" : {
      "name" : "EPSG:2264"
    }
  },
  "features" : [{"type":"Feature","id":1,"geometry":{"type":"LineString","coordinates":[[3035387.6401600093,569929.49852800369],[3035519.9754400104,569803.32976001501],[3035624.6451040059,569718.52820800245],[3035731.0344640166,569655.60275201499],[3035842.057024017,569604.35718400776],[3035960.3089600056,569561.03267200291],[3036057.8405920118,569537.86825600266],[3036174.8950240165,569520.61004801095],[3036271.413424015,569517.35545600951],[3036390.7044640183,569522.15339200199],[3037039.964944005,569551.92836800218],[3037534.1132800132,569574.14924800396],[3037689.2903680056,569580.34163200855],[3037781.8096960187,569585.62902401388],[3037884.2501440048,569598.19014400244],[3038030.2062400132,569634.15697601438],[3038095.5868960172,569657.21684801579],[3038162.2289440185,569683.96744000912],[3038218.5364480168,569711.19534401596],[3038306.9996800125,569761.75028800964],[3038339.7868960053,569784.13326400518],[3038404.3016320169,569833.14011201262],[3038458.2632320076,569878.97420801222],[3038503.2931840122,569919.7923040092],[3038558.6402560174,569984.29964800179],[3038602.0048960149,570033.60428801179],[3038651.0898880064,570104.12977601588],[3038691.7744000107,570172.49838401377],[3038719.1284960061,570224.33478401601],[3038756.1143680066,570303.47881600261],[3038784.2166400105,570383.29182401299],[3038800.064560011,570439.29731200635],[3038817.2103040069,570529.83083200455],[3038841.3219520152,570744.66452801228],[3038857.2823360115,570889.55934400856],[3038872.818208009,571007.57896000147],[3038898.5824960172,571201.6490560025],[3038920.743712008,571369.91156801581],[3038937.1983040124,571482.32752001286],[3038974.2633760124,571740.46513600647],[3039053.0077120066,572320.31473600864],[3039083.2853440046,572541.41896000504],[3039104.7337600142,572707.82502400875],[3039130.5445120186,572898.16057601571],[3039153.6482080072,573067.09206400812],[3039176.3786080182,573239.62662400305],[3039207.625120014,573479.23460800946],[3039230.6422240138,573629.54987201095],[3039240.4735840112,573683.65508800745],[3039257.8891360164,573756.10249601305],[3039293.4404320121,573887.68590401113],[3039322.0131520182,573996.25590400398],[3039366.8002240062,574161.27596801519],[3039387.3922240138,574269.61206400394],[3039399.1127680093,574363.45244801044],[3039408.516448006,574481.86859200895],[3039419.7591520101,574600.80481600761],[3039653.3912320137,577550.9932000041],[3039681.2828320116,577903.28852801025],[3039719.4456160069,578389.47832000256],[3039743.3756320179,578717.7955840081],[3039776.359792009,579140.88409601152],[3039813.2210560143,579517.57196800411],[3039855.2862880081,580025.59984001517],[3039918.9641440064,580775.2552960068],[3039949.6499200165,581165.24982400239],[3039960.0853120089,581260.67632000148],[3039970.3306240141,581339.16035200655],[3039982.4572000057,581426.82736000419],[3039995.101744011,581504.85467201471],[3040027.1687680185,581691.02588801086],[3040053.6643360108,581831.49500800669],[3040089.5007520169,581988.6568480134],[3040120.8507520109,582137.56499201059],[3040142.7564160079,582248.12449601293],[3040179.334672004,582486.20972800255],[3040191.2526880056,582627.67148800194],[3040197.6156160086,582691.23899200559],[3040203.64220801,582755.26902401447],[3040235.2171360105,583140.70427200198],[3040266.8612320125,583520.45665600896],[3040283.1769600064,583688.68273600936],[3040300.6516480148,583909.46593600512],[3040432.0037920177,585484.8484480083],[3040495.0491040051,586252.65601600707],[3040509.149872005,586389.95977601409],[3040555.2104800045,586920.49734400213],[3040575.7201120108,587168.50844800472],[3040587.8651680052,587325.30016000569],[3040631.200240016,587788.86990401149],[3040657.8198880106,587965.80006401241],[3040686.8340160102,588095.86864000559],[3040719.0958720148,588225.92190401256],[3040839.2111200094,588635.75128000975],[3040890.0511840135,588788.26038400829],[3040939.6266880184,588955.03763200343],[3040955.1456640065,589009.0055680126],[3040992.6843520105,589157.62753601372],[3041036.7042400092,589359.70686401427],[3041058.8300800174,589517.26576000452],[3041070.6995200068,589647.16801600158],[3041086.5917920172,589824.61667200923],[3041099.698864013,589984.12600000203],[3041110.7409280092,590102.02523200214],[3041131.8403360099,590351.89278401434],[3041144.0170720071,590488.49800001085],[3041157.1832800061,590634.62147201598],[3041192.4848320186,591063.12145601213],[3041211.0403360128,591277.36643201113],[3041225.3401600122,591470.77864000201],[3041247.0985120088,591753.75865601003],[3041249.6366080046,591783.15241600573],[3041259.3275200129,591895.369840011],[3041342.6269120127,592909.00470401347],[3041372.3137120157,593277.14108800888],[3041402.8368640095,593620.56548801064],[3041438.5935520083,593871.60203200579],[3041523.6015520096,594334.68443201482],[3041554.8153280169,594494.12987200916],[3041596.3192960173,594722.81089600921],[3041640.5757280141,594961.60312001407],[3041727.9998560101,595437.93990400434],[3041772.8999200165,595684.59985600412],[3041833.9013440162,596019.54088000953],[3041887.1137120128,596306.24910400808],[3042033.9985600114,597105.46633601189],[3042115.029136017,597540.61542400718],[3042183.8539360166,597912.33270400763],[3042214.6838560104,598103.88740800321],[3042246.818464011,598392.02017600834],[3042257.3869120181,598511.92052800953],[3042265.0793440044,598663.98928001523],[3042269.6644960046,598752.46201600134],[3042281.4520960152,598989.39145600796],[3042286.2722080052,599077.51782400906],[3042288.844096005,599160.87054400146],[3042292.6066240072,599230.11140801013],[3042296.7493120134,599282.52596801519],[3042299.5603840053,599348.89979201555],[3042308.7502240092,599537.99982400239],[3042309.9799360186,599584.61483201385],[3042312.8538400084,599632.60580800474],[3042315.6100000143,599689.7248480022],[3042322.22636801,599835.07216000557],[3042335.832400009,600086.06752000749],[3042341.4133600146,600224.67544001341],[3042348.7541440129,600370.89184001088],[3042353.7833440155,600491.45747201145],[3042359.2338880152,600582.23334400356],[3042362.9404480159,600638.28054401278],[3042367.1422720104,600699.58345600963],[3042376.1652640104,600936.68608000875],[3042385.6756000072,601131.09515200555],[3042393.7846240103,601268.24420800805],[3042395.005888015,601333.45326401293],[3042401.501872018,601483.23788800836],[3042406.9782880098,601565.85721601546],[3042408.5665120184,601615.14812800288],[3042412.6833280176,601666.84091201425],[3042420.6334240139,601747.59112000465],[3042428.2873120159,601814.86676800251],[3042436.7775520086,601876.00969600677],[3042459.8944480121,602010.05200001597],[3042467.9380000085,602051.09819200635],[3042500.762176007,602225.37515200675],[3042523.3690240085,602328.54793600738],[3042533.5372480154,602380.86112001538],[3042561.5001280159,602537.37985600531],[3042584.7500800043,602654.4400960058],[3042635.7411520183,602932.85713601112],[3042666.7368640155,603091.23073600233],[3042681.2045920044,603171.22907200456],[3042695.5260640085,603240.83689600229],[3042717.7775680125,603368.02100801468],[3042745.1374720186,603511.5113440156],[3042769.9408000112,603636.10456000268],[3042801.470848009,603801.91345600784],[3042828.612688005,603950.04280000925],[3042842.4024640173,604022.30329601467],[3042876.5767360181,604200.64744000137],[3042971.0000320077,604700.4400960058],[3042985.4561440051,604784.17139200866],[3043023.6178720146,604981.2605920136],[3043043.9025760144,605082.45232000947],[3043076.7367840111,605263.23054401577],[3043114.2823360115,605454.66380800307],[3043145.0346400142,605618.02172800899],[3043167.7111840099,605736.33227200806],[3043187.9668480158,605848.6019680053],[3043208.7684640139,605966.71873600781],[3043228.4966560155,606069.81179200113],[3043266.8468800187,606273.50363200903],[3043299.5881600082,606452.21896000206],[3043336.4890240133,606644.82280001044],[3043350.2217760086,606718.78028801084],[3043378.2501280159,606873.24985601008],[3043411.8636640161,607051.18532800674],[3043437.8439040184,607186.14318400621],[3043461.8050720096,607313.47883200645],[3043477.5558400154,607387.81648001075],[3043492.0557760149,607447.81576000154],[3043511.3050720096,607528.79300801456],[3043545.5083840042,607656.3298240155],[3043564.2465760112,607727.26451200247],[3043580.965696007,607789.29500800371],[3043612.2370240092,607902.46177600324],[3043634.5772320181,607983.15390400589],[3043654.3545280099,608062.92467200756],[3043678.026880011,608155.98678401113],[3043697.8548640162,608228.00017601252],[3043720.7774560153,608314.03513601422],[3043744.0168480128,608398.39897601306],[3043757.377888009,608447.66771200299],[3043798.9198720157,608603.87017600238],[3043868.0445760041,608860.48820801079],[3043901.0556640178,608983.69648000598],[3043949.9051680118,609159.98723201454],[3043987.1835520118,609303.22201600671],[3044006.66569601,609387.1840480119],[3044020.1735200137,609443.08868801594],[3044043.2054080069,609572.17201600969],[3044056.8922240138,609661.50961600244],[3044069.3915680051,609748.87883201241],[3044079.9014080167,609821.94558401406],[3044089.9138720185,609905.15099200606],[3044100.1744960099,609983.83672000468],[3044122.4017120153,610153.10612800717],[3044136.029392004,610252.50371201336],[3044151.5145760179,610346.86206400394],[3044161.6896640062,610425.13225600123],[3044171.5748800039,610489.58468800783],[3044185.3440640122,610592.20729601383],[3044201.422720015,610705.16444800794],[3044210.643712014,610781.96574400365],[3044220.1001920104,610850.49486400187],[3044232.705136016,610927.52953600883],[3044244.4330720156,611017.47803200781],[3044272.6657600105,611219.36305600405],[3044286.0996640176,611323.59976001084],[3044322.9292480052,611579.14806400239],[3044347.0129120052,611745.85614401102],[3044363.1538720131,611865.3937600106],[3044376.7282240093,611974.23092800379],[3044393.3961280137,612101.75718401372],[3044411.4848800153,612229.1646400094],[3044440.0549600124,612441.17036801577],[3044452.0754080117,612520.23361600935],[3044459.7556960136,612581.6933440119],[3044477.5049440116,612703.4174080044],[3044491.4525920153,612789.66673600674],[3044507.9731840044,612895.71078400314],[3044562.705136016,613188.92185601592],[3044914.9846240133,615056.91140800714],[3045072.3687520176,615899.54872000217],[3045167.6495200098,616404.79086400568],[3045251.5782880187,616850.81569601595],[3045304.6850560158,617130.99256001413],[3045334.7145280093,617293.40377600491],[3045378.1858240068,617523.06952001154],[3045563.2329280078,618500.69795200229],[3045680.5856800079,619110.7079680115],[3045743.4240160137,619443.42505601048],[3045782.9992000163,619669.16564801335],[3045976.8485920131,620699.12785600126],[3046001.3963680118,620839.9982560128],[3046027.4616160095,621011.6072320044],[3046059.983776018,621310.86337600648],[3046068.6244960129,621412.05827200413],[3046074.154768005,621529.44428801537],[3046093.5270880163,622042.59059201181],[3046129.3450240046,622958.53014400601],[3046161.8930560052,623805.23780800402],[3046174.6263040155,624126.42337600887],[3046193.5857280046,624588.49254401028],[3046220.2439200133,625275.61273600161],[3046236.4519360065,625694.99099200964],[3046250.1017920077,626037.39582401514],[3046281.9924640059,626915.46721601486],[3046289.2387360185,627226.84201601148],[3046301.0849440098,627688.15667201579],[3046317.433408007,628323.35862401128],[3046331.809792012,628886.98331201077],[3046360.9897120148,629967.34681600332],[3046395.1159360111,631212.64907200634],[3046428.381520018,632467.03504000604],[3046450.750240013,633151.93974401057],[3046479.6503200084,634322.55692800879],[3046524.5926240087,636117.67350400984],[3046533.0728320181,636454.40022401512],[3046537.8433120102,636653.49899201095],[3046554.4710880071,637308.68627201021],[3046557.7837600112,637428.8907520026],[3046564.6514560133,637741.06283201277],[3046566.6230080128,637803.52576000988],[3046590.4231360108,638717.15742400289],[3046606.5989440084,639372.83996801078],[3046633.3822720051,640448.25347201526],[3046648.750240013,640821.88000001013],[3046669.7672800124,641994.91014400125],[3046690.8967840075,642691.10348801315],[3046696.4946400076,642807.7001440078],[3046712.9392000139,643074.19600000978],[3046762.0131040066,643826.59177601337],[3046791.6492160112,644238.22163200378],[3046809.6482080072,644507.08398400247],[3046934.2894720137,646343.5392640084],[3046978.3648000062,646975.89054401219],[3047009.9133280069,647445.02963200212],[3047069.4727840126,648302.91400000453],[3047085.2737120092,648537.74200001359],[3047124.2818240076,649101.17766401172],[3047155.2865120173,649555.86116801202],[3047165.5001440048,649691.62000000477],[3047178.1536640078,649907.0783200115],[3047219.361424014,650515.7641120106],[3047238.898480013,650793.89128001034],[3047343.6880000085,652330.8892480135],[3047373.7528480142,652763.63012801111],[3047424.4086400121,653527.65827201307],[3047445.554512009,653846.1462880075],[3047491.7497600168,654487.88012801111],[3047539.2502240092,655188.81016001105],[3047560.9188160151,655518.82864001393],[3047568.6872800142,655630.41827200353],[3047583.2500480115,655823.80988800526],[3047610.4969600141,656216.47979201376],[3047622.8120320141,656343.79220801592],[3047630.9960320145,656413.90216000378],[3047740.9705120176,657254.357776016],[3047819.7528640181,657862.48072001338],[3047915.9961760044,658597.36432000995],[3047986.249744013,659125.7497600019],[3048058.7837440073,659686.27931201458],[3048099.4999360144,660023.5599040091],[3048135.8749120086,660303.3428800106],[3048154.5460480154,660445.21595200896],[3048168.5100640059,660551.68979200721],[3048204.5001280159,660845.13001601398],[3048224.0176480114,660983.89105600119],[3048281.950864017,661435.24288000166],[3048294.4935040176,661528.50404800475],[3048310.7342560142,661656.32598400116],[3048323.8503040075,661750.80841600895],[3048367.1536960155,662090.89480000734],[3048383.2503040135,662217.31014400721],[3048459.948112011,662805.69222401083],[3048673.1978080124,664439.32211200893],[3048710.8552960157,664732.20899200439],[3048763.1130400151,665135.50964801013],[3048824.9999200106,665610.80996800959],[3048840.1519360095,665732.16232000291],[3048851.9743840098,665816.77432000637],[3048994.2476800084,666910.71481600404],[3049012.0000960082,667067.12003201246],[3049027.5000640154,667179.05972801149],[3049041.4999840111,667270.93964800239],[3049046.3982400149,667315.91838401556],[3049052.0747680068,667362.11152000725],[3049079.5001440048,667717.12024000287],[3049076.7497920096,667906.68016001582],[3049070.3763040155,668003.9826400131],[3049064.7905920148,668066.23700800538],[3049050.778000012,668182.56332801282],[3049033.0799680054,668303.24564801157],[3049014.1221280098,668408.27910400927],[3048975.718576014,668593.66729600728],[3048928.626256004,668834.37352000177],[3048902.8778080046,668972.40116800368],[3048885.4643680155,669062.1442720145],[3048872.1856960058,669151.24216000736],[3048864.5798560083,669223.93244801462],[3048860.4968320131,669302.58016000688],[3048858.3753280044,669389.49688000977],[3048859.0041760057,669477.8481760025],[3048867.5625280142,669590.9536960125],[3048873.5965120047,669636.98368000984],[3048895.0338400155,669760.9939840138],[3048904.9132480174,669808.08736000955],[3048920.4998080134,669876.05996800959],[3048957.5147200078,670023.65867200494],[3048976.5871360153,670104.32334400713],[3048997.8528640121,670187.73731200397],[3049016.4601120055,670266.21078400314],[3049039.4418400079,670360.05644801259],[3049056.7396480143,670429.10353600979],[3049070.6059840173,670489.83673600852],[3049186.8351520151,670975.93360000849],[3049208.2576960176,671065.27225600183],[3049247.4331840128,671212.54043200612],[3049288.320976004,671345.05153600872],[3049300.9591840059,671381.81036800146],[3049319.9999200106,671437.19017601013],[3049417.7475040108,671693.96713601053],[3049489.5982720107,671885.62849600613],[3049505.8712320179,671929.93667200208],[3049529.577376008,671994.13936001062],[3049545.497104004,672033.95320001245],[3049572.9647200108,672105.10753600299],[3049619.9234560132,672229.3617760092],[3049631.3557120115,672259.46094401181],[3049649.5183840096,672306.49940800667],[3049659.9057280123,672339.27342401445],[3049706.2213600129,672460.70603200793],[3049746.7400800139,672566.94016000628],[3049830.6181600094,672784.87849600613],[3049896.5056960136,672956.71081601083],[3049950.0940000117,673098.23435200751],[3049989.3766720146,673204.59361600876],[3050016.0385600179,673276.71155200899],[3050055.1744480133,673400.85280001163],[3050071.6459360123,673459.02995200455],[3050086.0635040104,673531.98107200861],[3050107.8809920102,673654.5261760056],[3050114.8136320114,673709.89384001493],[3050124.9401440173,673861.74083201587],[3050124.7880800068,673953.28388801217],[3050117.1083200127,674123.24761600792],[3050109.8124160171,674227.36921600997],[3050104.763680011,674324.20494401455],[3050079.714304015,674767.78144000471],[3050072.2499680072,674924.25001600385],[3050021.2720960081,675860.63953600824],[3049988.2499200106,676430.62028801441],[3049978.9998880178,676652.31006400287],[3049973.0847040117,676741.71472001076],[3049967.6067040116,676859.07644800842],[3049959.8049760163,677005.73531201482],[3049955.8819360137,677060.29619200528],[3049945.2353440076,677257.21168000996],[3049937.6126080155,677411.95105600357],[3049934.8601440042,677461.12000000477],[3049928.5505440086,677563.01238401234],[3049925.6639680117,677612.74892801046],[3049920.8237920105,677691.50699201226],[3049917.1409920156,677779.23577600718],[3049902.7720000148,678058.76953600347],[3049899.7307200134,678123.10211201012],[3049891.5124000162,678263.28241601586],[3049883.8880800158,678412.78720000386],[3049881.4798720181,678463.68798400462],[3049878.7342720181,678527.74652801454],[3049866.4999840111,678769.6898560077],[3049865.297728017,678816.8809120059],[3049865.3188480139,678870.96606400609],[3049865.521600008,678890.14988800883],[3049865.6272000074,678930.99755200744],[3049866.3373600096,678960.99006401002],[3049869.7704160064,679041.75664000213],[3049871.0824960172,679089.60611200333],[3049875.2500000149,679151.25011201203],[3049897.2190240175,679365.10964800417],[3049913.1202720106,679470.17478400469],[3049935.7202560157,679600.54115201533],[3049942.9860640168,679636.62942400575],[3049961.9998720139,679727.74004800618],[3049984.7313280106,679839.61955200136],[3049992.1555360109,679869.49273601174],[3050005.727248013,679938.9675040096],[3050024.9100160152,680031.11459201574],[3050070.1369120181,680240.38211201131],[3050076.6128320098,680269.48283201456],[3050103.2916160077,680395.00691200793],[3050129.7824320048,680518.96705600619],[3050146.5855040103,680599.80068801343],[3050158.1851360053,680652.18092800677],[3050176.1059840173,680736.93918401003],[3050200.9996000081,680865.27222400904],[3050217.0893440098,680994.69980800152],[3050227.1778400093,681111.72520001233],[3050233.7514400184,681211.20304000378],[3050260.2084640115,681607.6946080029],[3050289.251632005,682040.06905600429],[3050293.4840800166,682123.57912001014],[3050304.9020800143,682289.13827200234],[3050306.9908480048,682421.22116801143],[3050302.2499360144,682691.05979201198],[3050285.7499360144,683317.43992000818],[3050280.9678400159,683424.21260800958],[3050273.641312018,683646.33217601478],[3050259.2607040107,684051.85096000135],[3050255.5995520055,684163.97440001369],[3050238.3651040047,684674.2182880044],[3050235.9848800153,684712.93652801216],[3050232.8321920186,684851.41772800684],[3050218.7499040067,685246.36964800954],[3050213.4878560156,685476.61460800469],[3050212.2502240092,685531.94003200531],[3050207.0003200173,685625.00003200769],[3050191.9998400062,686017.37003201246],[3050186.7499360144,686266.99998401105],[3050181.0000160187,686412.17992000282],[3050170.0989280045,686538.41944000125],[3050153.7499360144,686642.80979201198],[3050148.6763840169,686682.24452801049],[3050127.9814240187,686786.11427201331],[3050067.3115840107,687029.77254401147],[3049994.0336320102,687256.79670400918],[3049937.1675040126,687424.7809600085],[3049917.9731200039,687488.56441600621],[3049876.0451680124,687611.29854400456],[3049854.6205120087,687683.45238400996],[3049839.1749280095,687742.90888001025],[3049822.611040011,687815.74964800477],[3049795.9998400062,687958.94008000195],[3049784.2497280091,688065.690064013],[3049783.7692480087,688157.86883200705],[3049784.2391680181,688232.58505600691],[3049787.7498400062,688347.30995200574],[3049787.9214400053,688352.04400001466],[3049796.6371360123,688637.26907201111],[3049798.4191360176,688689.41329601407],[3049802.4842080176,688816.99499200284],[3049805.1199840158,688908.46307200193],[3049811.245840013,689103.47248001397],[3049813.2501280159,689192.13001601398],[3049821.9763840139,689414.25380800664],[3049825.7500000149,689510.31020800769],[3049830.8019040078,689616.76768000424],[3049848.9999520183,690000.24985601008],[3049856.4120160043,690111.07072000206],[3049871.785792008,690215.98326401412],[3049887.9151360095,690287.73952001333],[3049916.1726400107,690401.66766400635],[3049949.929264009,690510.4821280092],[3050051.227120012,690813.35665601492],[3050318.4547840059,691619.04347200692],[3050339.7970720083,691692.4803520143],[3050361.2222560048,691779.23867200315],[3050379.6700480133,691866.9526720047],[3050396.5787200183,691970.73265600204],[3050424.1318720132,692179.89088000357],[3050431.8808000088,692324.42560000718],[3050434.0878400058,692405.49524800479],[3050431.7609440088,692540.25457601249],[3050413.254016012,693027.08747200668],[3050400.3708160073,693333.50065600872],[3050390.2844320089,693616.24888001382],[3050378.195344016,693944.08513601124],[3050365.4214400053,694251.10657601058],[3050353.2885280102,694594.80342401564],[3050343.2665600181,694881.19643200934],[3050332.4172160178,695159.66838401556],[3050314.5074560046,695645.34073600173],[3050302.1200480163,695933.33886401355],[3050295.2122240067,696043.96067200601],[3050282.6442400068,696198.66520000994],[3050268.7731520087,696322.11899201572],[3050251.1907520145,696456.69246400893],[3050239.1655520052,696543.53632001579],[3050220.2858560085,696645.82153600454],[3050198.3342560083,696725.40908801556],[3050165.7756640166,696814.78628800809],[3050129.3616160154,696905.5024960041],[3050100.3601600081,696964.4969920069],[3050055.6570400149,697060.01905600727],[3049950.8743840158,697270.45662400126],[3049881.9920320064,697418.10020801425],[3049849.089184016,697511.62273600698],[3049812.3815680146,697648.64032000303],[3049797.9877600074,697733.0395360142],[3049787.713936016,697808.98388801515],[3049783.3700800091,697915.25761601329],[3049787.1880480051,698111.32672001421],[3049794.8899840117,698323.56212800741],[3049800.8357920051,698439.94072000682],[3049800.7597600073,698523.40907201171],[3049798.4413120151,698572.14241601527],[3049785.7239040136,698688.9692800045],[3049773.3782080114,698767.56366400421],[3049756.9684960097,698838.07120001316],[3049747.8615520149,698874.42980800569],[3049721.3960800171,698945.98278400302],[3049688.4736960083,699039.3748960048],[3048757.4465440065,701413.19531200826],[3048652.5741280168,701682.82854400575],[3048526.7438080162,702025.75081600249],[3048465.0459520072,702224.32686400414],[3048425.0473120064,702364.82344001532],[3048393.6682720184,702491.75939200819],[3048336.5956960171,702758.11110401154],[3048249.0131680071,703270.14860801399],[3048176.5182400048,703679.35864001513],[3048129.8340640068,703955.27665600181],[3048090.8180320114,704181.68358400464],[3048053.2613920122,704403.33851200342],[3048019.0374880135,704600.82846400142],[3047984.7438880056,704800.82483200729],[3047951.8843360096,704996.10932800174],[3047912.0002720058,705197.56878401339],[3047889.4942720085,705329.83542400599],[3047866.3388320059,705461.98960000277],[3047842.5350080132,705594.02920000255],[3047820.2692480087,705725.49539200962],[3047797.3556320071,705856.38342401385],[3047771.7212320119,705985.74923200905],[3047740.8437920064,706120.96897600591],[3047729.7288640141,706171.62476800382],[3047717.8874080181,706222.11635200679],[3047705.3215360045,706272.43211200833],[3047692.0338880122,706322.56201601028],[3047678.027632013,706372.49603201449],[3047663.3054080158,706422.2230720073],[3047647.8698560148,706471.73416000605],[3047621.8220320046,706561.25392000377],[3047594.1870400161,706649.53182400763],[3047564.138560012,706738.31713600457],[3047534.8218880147,706826.72598400712],[3047472.3019360155,707018.93699200451],[3047395.3945120126,707251.92227201164],[3047328.5539360046,707454.49844801426],[3047254.7537920177,707677.79440000653],[3047192.0627680123,707868.51592001319],[3047128.3210240155,708058.70996801555],[3047065.9394080043,708248.69440001249],[3047003.0878720134,708438.52360001206],[3046920.5799520165,708690.10768000782],[3046852.4827360064,708905.80676801503],[3046788.594208017,709142.54929600656],[3046659.4042240083,709700.05868801475],[3046587.1310560107,710010.41128000617],[3046534.9789120108,710238.34940801561],[3046464.7792000175,710545.45110401511],[3046173.4837120175,711802.37675200403],[3046132.1064640135,711978.7308640033],[3046078.4405440092,712213.74366401136],[3046020.9344800115,712458.59680001438],[3045967.3224160075,712691.75262400508],[3045883.3778080046,713056.19036801159],[3045866.3403040171,713126.86369600892],[3045852.1645600051,713198.21920001507],[3045838.5321280062,713268.87088000774],[3045825.6520960182,713340.08857600391],[3045813.1200160086,713411.42507201433],[3045800.4802240133,713483.69876800478],[3045792.9308800101,713551.87096001208],[3045785.1286240071,713610.1674400121],[3045779.0138560086,713656.79142400622],[3045775.0126720071,713697.35185600817],[3045745.8116320074,714012.23099200428],[3045720.8578240126,714326.96809600294],[3045692.5770880133,714636.71718400717],[3045673.3309600055,714866.26043200493],[3045652.8588160127,715098.64168000221],[3045632.7736960053,715332.0710080117],[3045613.1954560131,715562.23201601207],[3045593.2307200134,715800.89646400511],[3045572.8868800104,716037.5740480125],[3045553.5557440072,716272.97123201191],[3045533.7546880096,716489.96339200437],[3045526.901248008,716573.21368001401],[3045497.2588000149,716876.10035200417],[3045470.4089440107,717070.10550400615],[3045430.4694400132,717285.7840000093],[3045367.9120000154,717590.07515200973],[3045108.0098080188,718781.94486400485],[3045066.7043680102,718971.39812800288],[3044983.5100480169,719368.40132801235],[3044945.5077760071,719565.06654401124],[3044911.0927360058,719787.72361600399],[3044868.0644320101,720128.43937601149],[3044776.4617120177,720842.76054400206],[3044701.1266720146,721432.93676801026],[3044598.1793440133,722197.28857600689],[3044541.7372000068,722485.97099201381],[3044435.9809120148,722920.98385600746],[3043749.1627360135,725515.66456000507],[3043538.8186240047,726301.86606401205],[3043428.1207840145,726732.68819200993],[3043391.3487520069,726870.9154240042],[3043286.8026400059,727266.73960000277],[3043253.1869920045,727383.69899201393],[3043216.0094560087,727500.65521600842],[3043116.1366720051,727764.49681600928],[3042991.9426240176,728097.89027200639],[3042683.0943040103,728925.72140800953],[3042536.344096005,729318.1616320014],[3042356.4508000165,729808.77184000611],[3042196.0544320047,730239.42500801384],[3042086.3587360084,730527.54246400297],[3041975.9481280148,730834.36484800279],[3041823.2975200117,731299.20126400888],[3041565.2396320105,732082.99350400269],[3041382.1176160127,732637.7145280093],[3041253.8452960104,732996.47363200784],[3041148.8651680052,733244.28990401328],[3041064.2975200117,733429.03604800999],[3040817.0134720057,733901.19212800264],[3040585.8466240168,734335.99168001115],[3040444.3362880051,734607.1180960089],[3040384.6854880154,734728.91660800576],[3040354.7547520101,734790.03102400899],[3040268.8306720108,734983.01027201116],[3040154.4975520074,735265.66345600784],[3039956.5001920164,735754.88872000575],[3039847.7696800083,736029.02579200268],[3039674.5914880186,736461.86435200274],[3039446.8624480069,737025.38660800457],[3039255.5500960052,737510.58428801596],[3038986.056784004,738230.69444800913],[3038739.4227040112,738889.57244801521],[3038367.6220000088,739881.5946880132],[3038136.9979360104,740498.52678400278],[3037954.8125920147,740982.83636800945],[3037736.4993760139,741564.61000001431],[3037667.5468000174,741745.05241601169],[3037634.7474400103,741837.27236801386],[3037597.8170080185,741946.74102400243],[3037575.5037280172,742018.40752001107],[3037477.0465120077,742314.77814400196],[3037451.9607040137,742395.48611201346],[3037385.7225760072,742598.08393600583],[3037321.6682560146,742774.43963201344],[3037236.6771520078,742970.78012800217],[3037126.9819840044,743200.185040012],[3036875.1043360084,743739.69438400865],[3036693.6603040099,744118.91084800661],[3036625.7579200119,744262.54638400674],[3036404.8099840134,744728.74187201262],[3036097.7067040056,745377.47857600451],[3035975.7334240079,745637.36545601487],[3035873.053264007,745851.01590400934],[3035750.4448000044,746109.00092801452],[3035614.9409920126,746394.49633601308],[3035540.4291040152,746551.37833601236],[3035508.2057920098,746619.39582401514],[3035375.4671200067,746901.68099200726],[3035251.8021280169,747160.52454401553],[3035165.9963200092,747341.09579201043],[3035088.7361920178,747498.56281600893],[3034999.4033440053,747665.73764801025],[3034856.046592012,747915.18860800564],[3034801.5459040105,748002.24894401431],[3034735.1435680091,748101.05411200225],[3034641.0127840042,748239.73859201372],[3034567.5516160131,748342.6510720104],[3034513.3392160088,748412.12320001423],[3034443.0856480151,748501.60652801394],[3034226.3215840161,748790.58251200616],[3034152.1645120084,748884.95564800501],[3033732.0623680055,749424.64926400781],[3033634.6674880087,749551.39355200529],[3033457.8144160062,749776.30518400669],[3033243.3012160063,750051.37576000392],[3032930.8017760068,750453.54755200446],[3032797.8614080101,750624.52873601019],[3032668.1091040075,750792.01456001401],[3032620.627120018,750852.91408000886],[3032573.3114560097,750915.81155200303],[3032526.8833600134,750973.88680000603],[3032489.4307360053,751017.15217600763],[3032468.4712480158,751042.2527680099],[3032447.6316160113,751066.2318880111],[3032419.472848013,751095.43028800189],[3032390.3293600082,751125.9038080126],[3032359.9519360065,751155.09323200583],[3032332.0138720125,751182.04868800938],[3032301.2816320062,751210.90072001517],[3032268.2156320065,751239.48241600394],[3032238.261664018,751265.6823040098],[3032104.1364640146,751371.987184003],[3032060.9508160055,751401.61326400936],[3032023.3725280166,751426.39441600442],[3031989.9474880099,751449.19451200962],[3031956.5118880123,751470.66404800117],[3031920.2250880152,751492.46411201358],[3031886.2482880056,751511.31476800144],[3031848.5290240049,751532.63699200749],[3031812.798736006,751552.70891201496],[3031776.0472960174,751571.63454401493],[3031738.2863200158,751589.40808001161],[3031703.680144012,751606.65520000458],[3031666.9577440172,751621.9962400049],[3031625.7689920068,751640.07443201542],[3031588.2118240148,751655.30723200738],[3031550.7586720139,751669.50409600139],[3031511.5245760083,751684.76065601408],[3031472.1452800184,751696.78480000794],[3031431.7480000108,751709.52702401578],[3031395.8630080074,751721.03003200889],[3031350.2395840138,751734.33880001307],[3031312.182400018,751743.25936001539],[3031271.983648017,751755.01052801311],[3031232.0119360089,751763.20614400506],[3031189.9699360132,751773.61830401421],[3031146.2879680097,751784.81348800659],[3031106.1879520118,751793.37289601564],[3031063.0023040175,751803.01470400393],[3031018.9111360162,751813.82392001152],[3030975.4308640063,751824.41032001376],[3030637.3904800117,751898.57003201544],[3030102.3115840107,752026.22036801279]]},"properties":{"OBJECTID":1,"BeginMP":0,"EndMP":84.222143000006326,"Shape_Length":191705.83052359492,"year":null,"route_name":null,"domain_id":null,"avg_elev_m":null,"source_image":null,"editor":null,"edit_date":null,"notes":null}}]
}