{
"type": "FeatureCollection",
"name": "zones",
"crs": { "type": "name", "properties": { "name": "urn:ogc:def:crs:OGC:1.3:CRS84" } },
"xy_coordinate_resolution": 1e-07,
"features": [
{ "type": "Feature", "properties": { "zone_id": "83" }, "geometry": { "type": "Polygon", "coordinates": [ [ [ -75.4842516, 35.6072317 ], [ -75.4842244, 35.6027236 ], [ -75.4621446, 35.6028103 ], [ -75.4621705, 35.6073184 ], [ -75.4842516, 35.6072317 ] ] ] } },
{ "type": "Feature", "properties": { "zone_id": "84" }, "geometry": { "type": "Polygon", "coordinates": [ [ [ -75.4842788, 35.6117463 ], [ -75.4842516, 35.6072382 ], [ -75.4621706, 35.607325 ], [ -75.4621965, 35.6118331 ], [ -75.4842788, 35.6117463 ] ] ] } },
{ "type": "Feature", "properties": { "zone_id": "85" }, "geometry": { "type": "Polygon", "coordinates": [ [ [ -75.4863874, 35.6162603 ], [ -75.4863601, 35.6117522 ], [ -75.4642778, 35.6118394 ], [ -75.4643039, 35.6163475 ], [ -75.4863874, 35.6162603 ] ] ] } }
]
}
